      2.10          N: GNSS NAV DATA                        RINEX VERSION / TYPE
fic2rin                                 07/05/2022 00:17:30 PGM / RUN BY / DATE
                                                            END OF HEADER
12 22  7  4 16  0  0.0 -.241231173277D-03 -.591171556152D-11  .000000000000D+00
     .520000000000D+02 -.281250000000D+01  .454304637897D-08  .456992855198D+00
    -.430271029472D-06  .855347979814D-02  .660307705402D-05  .515376912308D+04
     .144000000000D+06 -.912696123123D-07 -.167656500549D+00  .186264514923D-08
     .969026589950D+00  .256906250000D+03  .130953770910D+01 -.819248410699D-08
    -.218937691062D-09  .100000000000D+01  .221700000000D+04  .000000000000D+00
     .240000000000D+01  .000000000000D+00 -.125728547573D-07  .520000000000D+02
     .136800000000D+06  .400000000000D+01
7  22  7  4 16  0  0.0  .320357270539D-03 -.113686837722D-11  .000000000000D+00
     .810000000000D+02  .233437500000D+02  .481091467962D-08  .109935194026D+01
     .133924186230D-05  .162876617396D-01  .844150781631D-05  .515365174866D+04
     .144000000000D+06 -.206753611565D-06 -.128106065549D+01  .670552253723D-07
     .950327360401D+00  .214781250000D+03 -.225493630685D+01 -.832677541505D-08
     .177150236161D-09  .100000000000D+01  .221700000000D+04  .000000000000D+00
     .240000000000D+01  .000000000000D+00 -.111758708954D-07  .810000000000D+02
     .136800000000D+06  .400000000000D+01
6  22  7  4 16  0  0.0  .370807014406D-03  .161435309565D-10  .000000000000D+00
     .820000000000D+02  .564375000000D+02  .414088677027D-08  .198188605888D+01
     .308454036713D-05  .246705091558D-02  .558607280254D-05  .515375370598D+04
     .144000000000D+06  .819563865662D-07  .186120840168D+01 -.115483999252D-06
     .987186674207D+00  .281968750000D+03 -.861572698384D+00 -.798140388608D-08
     .127862468842D-09  .100000000000D+01  .221700000000D+04  .000000000000D+00
     .240000000000D+01  .000000000000D+00  .372529029846D-08  .820000000000D+02
     .136800000000D+06  .400000000000D+01
4  22  7  4 16  0  0.0 -.149818137288D-03  .443378667114D-11  .000000000000D+00
     .221000000000D+03 -.621875000000D+02  .427339228966D-08 -.272958066137D+01
    -.323913991451D-05  .186726730317D-02  .106673687696D-04  .515360052299D+04
     .144000000000D+06  .167638063431D-07 -.229895142300D+01  .745058059692D-08
     .961490714176D+00  .172593750000D+03 -.298201524248D+01 -.785139847083D-08
     .139291516336D-10  .100000000000D+01  .221700000000D+04  .000000000000D+00
     .240000000000D+01  .000000000000D+00 -.465661287308D-08  .477000000000D+03
     .136800000000D+06  .400000000000D+01
29 22  7  4 16  0  0.0 -.530377030373D-03 -.363797880709D-11  .000000000000D+00
     .290000000000D+02  .462500000000D+02  .401588156330D-08 -.226615221303D+01
     .257045030594D-05  .226077204570D-02  .935792922974D-05  .515368705940D+04
     .144000000000D+06 -.260770320892D-07  .883484956855D+00  .484287738800D-07
     .980528650223D+00  .213875000000D+03  .233333608653D+01 -.771532137410D-08
    -.228580949885D-10  .100000000000D+01  .221700000000D+04  .000000000000D+00
     .240000000000D+01  .000000000000D+00 -.102445483208D-07  .290000000000D+02
     .136800000000D+06  .400000000000D+01
30 22  7  4 16  0  0.0 -.533181708306D-03 -.909494701773D-12  .000000000000D+00
     .310000000000D+02  .280312500000D+02  .508485466175D-08  .103779368459D+01
     .159069895744D-05  .592799496371D-02  .784173607826D-05  .515374438286D+04
     .144000000000D+06 -.931322574615D-07 -.127000827137D+01  .763684511185D-07
     .935477687132D+00  .215468750000D+03 -.266423279542D+01 -.829213111483D-08
     .275011455331D-09  .100000000000D+01  .221700000000D+04  .000000000000D+00
     .240000000000D+01  .000000000000D+00  .372529029846D-08  .310000000000D+02
     .136800000000D+06  .400000000000D+01
15 22  7  4 16  0  0.0 -.480846501887D-04  .306954461848D-11  .000000000000D+00
     .290000000000D+02 -.754375000000D+02  .488306054193D-08  .299676094031D+01
    -.387988984585D-05  .141997212777D-01  .915117561817D-05  .515358693695D+04
     .144000000000D+06  .894069671631D-07 -.246273737293D+01 -.119209289551D-06
     .930648338542D+00  .184593750000D+03  .109985317842D+01 -.796711757671D-08
    -.321441960776D-10  .100000000000D+01  .221700000000D+04  .000000000000D+00
     .240000000000D+01  .000000000000D+00 -.107102096081D-07  .290000000000D+02
     .136800000000D+06  .400000000000D+01
9  22  7  4 16  0  0.0 -.322335399687D-03  .363797880709D-11  .000000000000D+00
     .820000000000D+02 -.682187500000D+02  .447947230229D-08 -.180921896004D+01
    -.361353158951D-05  .220444041770D-02  .103265047073D-04  .515380537415D+04
     .144000000000D+06  .130385160446D-07 -.235302691267D+01  .651925802231D-07
     .954602856984D+00  .175718750000D+03  .190514329140D+01 -.798711840983D-08
    -.817891211309D-10  .100000000000D+01  .221700000000D+04  .000000000000D+00
     .240000000000D+01  .000000000000D+00  .139698386192D-08  .820000000000D+02
     .136800000000D+06  .400000000000D+01
22 22  7  4 16  0  0.0  .286701600999D-03  .636646291241D-11  .000000000000D+00
     .170000000000D+02 -.463750000000D+02  .411731435981D-08 -.246872966240D+01
    -.234134495258D-05  .134229293326D-01  .104755163193D-04  .515371498299D+04
     .144000000000D+06  .126659870148D-06 -.225057000694D+01 -.838190317154D-07
     .961528169268D+00  .177781250000D+03 -.184552674496D+01 -.753459956060D-08
     .971469037013D-10  .100000000000D+01  .221700000000D+04  .000000000000D+00
     .240000000000D+01  .000000000000D+00 -.838190317154D-08  .170000000000D+02
     .136800000000D+06  .400000000000D+01
26 22  7  4 16  0  0.0  .216281972826D-03  .227373675443D-11  .000000000000D+00
     .380000000000D+02 -.456250000000D+01  .527736268048D-08 -.504123033034D+00
    -.689178705215D-07  .697017519269D-02  .597722828388D-05  .515377038383D+04
     .144000000000D+06  .987201929092D-07 -.295586242045D+00  .372529029846D-07
     .937277541577D+00  .248937500000D+03  .385619204805D+00 -.852142638018D-08
    -.156435087578D-09  .100000000000D+01  .221700000000D+04  .000000000000D+00
     .240000000000D+01  .000000000000D+00  .698491930962D-08  .380000000000D+02
     .136800000000D+06  .400000000000D+01
13 22  7  4 16  0  0.0  .342005398124D-03  .704858393874D-11  .000000000000D+00
     .870000000000D+02 -.528437500000D+02  .400909556635D-08 -.274599306323D+01
    -.262819230556D-05  .607747735921D-02  .100973993540D-04  .515367927361D+04
     .144000000000D+06 -.298023223877D-07 -.219794986767D+01  .111758708954D-07
     .968752335235D+00  .189156250000D+03  .914313977510D+00 -.759353058674D-08
     .126433837905D-09  .100000000000D+01  .221700000000D+04  .000000000000D+00
     .240000000000D+01  .000000000000D+00 -.116415321827D-07  .870000000000D+02
     .136800000000D+06  .400000000000D+01
31 22  7  4 16  0  0.0 -.184426549822D-03 -.159161572810D-11  .000000000000D+00
     .830000000000D+02  .321875000000D+02  .465662253845D-08  .601969593398D+00
     .184215605259D-05  .104487226345D-01  .746361911297D-05  .515376396751D+04
     .144000000000D+06  .130385160446D-07 -.126240106371D+01  .294297933578D-06
     .954519066888D+00  .231718750000D+03  .399617107188D+00 -.817176895841D-08
     .312870175156D-09  .100000000000D+01  .221700000000D+04  .000000000000D+00
     .240000000000D+01  .000000000000D+00 -.135041773319D-07  .830000000000D+02
     .136800000000D+06  .400000000000D+01
32 22  7  4 16  0  0.0 -.167629215866D-03 -.977706804406D-11  .000000000000D+00
     .590000000000D+02 -.477187500000D+02  .432910889619D-08 -.161898049029D+01
    -.255368649960D-05  .602646707557D-02  .102203339338D-04  .515361905670D+04
     .144000000000D+06  .182539224625D-06 -.234122565347D+01 -.987201929092D-07
     .958384008678D+00  .184781250000D+03 -.227914590700D+01 -.780103923031D-08
    -.353586156854D-10  .100000000000D+01  .221700000000D+04  .000000000000D+00
     .240000000000D+01  .000000000000D+00  .465661287308D-09  .590000000000D+02
     .136800000000D+06  .400000000000D+01
21 22  7  4 16  0  0.0  .161218922585D-03 -.113686837722D-12  .000000000000D+00
     .880000000000D+02  .840312500000D+02  .451768817985D-08 -.221476120437D+01
     .475533306599D-05  .242656895425D-01  .570341944695D-05  .515373833084D+04
     .144000000000D+06 -.143423676491D-06  .177477510392D+01  .501051545143D-06
     .960219924054D+00  .271718750000D+03 -.928888190619D+00 -.797390357366D-08
     .235724104569D-09  .100000000000D+01  .221700000000D+04  .000000000000D+00
     .340000000000D+01  .000000000000D+00 -.102445483208D-07  .880000000000D+02
     .136800000000D+06  .400000000000D+01
19 22  7  4 16  0  0.0  .179298222065D-03  .500222085975D-11  .000000000000D+00
     .950000000000D+02  .323750000000D+02  .413374361559D-08 -.286210544904D-01
     .170990824699D-05  .929203396663D-02  .998377799988D-05  .515370953941D+04
     .144000000000D+06 -.707805156708D-07  .914926672471D+00 -.124797224998D-06
     .977283397605D+00  .197343750000D+03  .210800959540D+01 -.794925969000D-08
    -.757174396496D-10  .100000000000D+01  .221700000000D+04  .000000000000D+00
     .340000000000D+01  .000000000000D+00 -.158324837685D-07  .950000000000D+02
     .136800000000D+06  .400000000000D+01
20 22  7  4 16  0  0.0  .505991745740D-03 -.318323145621D-11  .000000000000D+00
     .750000000000D+02 -.402812500000D+02  .506306803996D-08  .283928770718D+01
    -.220909714699D-05  .474792509340D-02  .347942113876D-05  .515360874176D+04
     .144000000000D+06 -.670552253723D-07  .274442741319D+01  .465661287308D-07
     .943968738693D+00  .305500000000D+03 -.311797849035D+01 -.843499420851D-08
    -.184293390845D-09  .100000000000D+01  .221700000000D+04  .000000000000D+00
     .240000000000D+01  .000000000000D+00 -.838190317154D-08  .750000000000D+02
     .136800000000D+06  .400000000000D+01
